{
  "type": "FeatureCollection",
  "features": [
    {
      "type": "Feature",
      "properties": {
        "norad_id": 37836,
        "name": "EUTELSAT 16A",
        "group": "eutelsat",
        "lat": 0.042395427802344024,
        "lon": 32.05415116982466,
        "alt_km": 35795.9297821439,
        "timestamp": "2025-12-27T18:38:03.150533+00:00",
        "meta_object_name": "EUTELSAT 16A",
        "meta_object_id": "2011-057A",
        "meta_epoch": "2025-12-27T06:13:44.235264",
        "meta_mean_motion": 1.00272018,
        "meta_eccentricity": 0.0005819,
        "meta_inclination": 0.0553,
        "meta_ra_of_asc_node": 354.7485,
        "meta_arg_of_pericenter": 283.4184,
        "meta_mean_anomaly": 287.2446,
        "meta_ephemeris_type": 0,
        "meta_classification_type": "U",
        "meta_norad_cat_id": 37836,
        "meta_element_set_no": 999,
        "meta_rev_at_epoch": 560,
        "meta_bstar": 0,
        "meta_mean_motion_dot": 1.26e-06,
        "meta_mean_motion_ddot": 0,
        "tle_line1": "1 37836U 11057A   25361.25953976  .00000126  00000+0  00000+0 0  9991",
        "tle_line2": "2 37836   0.0553 354.7485 0005819 283.4184 287.2446  1.00272018  5606"
      },
      "geometry": {
        "type": "Point",
        "coordinates": [
          32.05415116982466,
          0.042395427802344024
        ]
      }
    },
    {
      "type": "Feature",
      "properties": {
        "norad_id": 38992,
        "name": "EUTELSAT 21B",
        "group": "eutelsat",
        "lat": 0.05414435774587603,
        "lon": 37.62021873365748,
        "alt_km": 35791.70472213914,
        "timestamp": "2025-12-27T18:38:03.150544+00:00",
        "meta_object_name": "EUTELSAT 21B",
        "meta_object_id": "2012-062B",
        "meta_epoch": "2025-12-27T11:23:22.083360",
        "meta_mean_motion": 1.00272181,
        "meta_eccentricity": 0.0003227,
        "meta_inclination": 0.0647,
        "meta_ra_of_asc_node": 355.0691,
        "meta_arg_of_pericenter": 287.5834,
        "meta_mean_anomaly": 5.9725,
        "meta_ephemeris_type": 0,
        "meta_classification_type": "U",
        "meta_norad_cat_id": 38992,
        "meta_element_set_no": 999,
        "meta_rev_at_epoch": 4810,
        "meta_bstar": 0,
        "meta_mean_motion_dot": 1.52e-06,
        "meta_mean_motion_ddot": 0,
        "tle_line1": "1 38992U 12062B   25361.47456115  .00000152  00000+0  00000+0 0  9998",
        "tle_line2": "2 38992   0.0647 355.0691 0003227 287.5834   5.9725  1.00272181 48103"
      },
      "geometry": {
        "type": "Point",
        "coordinates": [
          37.62021873365748,
          0.05414435774587603
        ]
      }
    },
    {
      "type": "Feature",
      "properties": {
        "norad_id": 39020,
        "name": "EUTELSAT 70B",
        "group": "eutelsat",
        "lat": 0.07936202310403871,
        "lon": 86.490138723257,
        "alt_km": 35803.608585858856,
        "timestamp": "2025-12-27T18:38:03.150556+00:00",
        "meta_object_name": "EUTELSAT 70B",
        "meta_object_id": "2012-069A",
        "meta_epoch": "2025-12-27T11:37:20.743968",
        "meta_mean_motion": 1.00271056,
        "meta_eccentricity": 0.0004149,
        "meta_inclination": 0.061,
        "meta_ra_of_asc_node": 353.1112,
        "meta_arg_of_pericenter": 264.2518,
        "meta_mean_anomaly": 83.6782,
        "meta_ephemeris_type": 0,
        "meta_classification_type": "U",
        "meta_norad_cat_id": 39020,
        "meta_element_set_no": 999,
        "meta_rev_at_epoch": 4778,
        "meta_bstar": 0,
        "meta_mean_motion_dot": -2.1e-07,
        "meta_mean_motion_ddot": 0,
        "tle_line1": "1 39020U 12069A   25361.48426787 -.00000021  00000+0  00000+0 0  9997",
        "tle_line2": "2 39020   0.0610 353.1112 0004149 264.2518  83.6782  1.00271056 47787"
      },
      "geometry": {
        "type": "Point",
        "coordinates": [
          86.490138723257,
          0.07936202310403871
        ]
      }
    },
    {
      "type": "Feature",
      "properties": {
        "norad_id": 39122,
        "name": "EUTELSAT 117 WEST A",
        "group": "eutelsat",
        "lat": -0.030276193100805628,
        "lon": -100.8063987866327,
        "alt_km": 35774.90563097483,
        "timestamp": "2025-12-27T18:38:03.150569+00:00",
        "meta_object_name": "EUTELSAT 117 WEST A",
        "meta_object_id": "2013-012A",
        "meta_epoch": "2025-12-27T09:01:20.682048",
        "meta_mean_motion": 1.00270821,
        "meta_eccentricity": 0.000289,
        "meta_inclination": 0.0143,
        "meta_ra_of_asc_node": 335.6574,
        "meta_arg_of_pericenter": 304.3654,
        "meta_mean_anomaly": 194.6196,
        "meta_ephemeris_type": 0,
        "meta_classification_type": "U",
        "meta_norad_cat_id": 39122,
        "meta_element_set_no": 999,
        "meta_rev_at_epoch": 4671,
        "meta_bstar": 0,
        "meta_mean_motion_dot": 1e-07,
        "meta_mean_motion_ddot": 0,
        "tle_line1": "1 39122U 13012A   25361.37593382  .00000010  00000+0  00000+0 0  9990",
        "tle_line2": "2 39122   0.0143 335.6574 0002890 304.3654 194.6196  1.00270821 46719"
      },
      "geometry": {
        "type": "Point",
        "coordinates": [
          -100.8063987866327,
          -0.030276193100805628
        ]
      }
    },
    {
      "type": "Feature",
      "properties": {
        "norad_id": 39163,
        "name": "EUTELSAT 7B",
        "group": "eutelsat",
        "lat": 0.016087557178959447,
        "lon": 23.05086810246695,
        "alt_km": 35776.21330720707,
        "timestamp": "2025-12-27T18:38:03.150581+00:00",
        "meta_object_name": "EUTELSAT 7B",
        "meta_object_id": "2013-022A",
        "meta_epoch": "2025-12-27T06:13:38.544096",
        "meta_mean_motion": 1.0027195,
        "meta_eccentricity": 0.0004788,
        "meta_inclination": 0.0674,
        "meta_ra_of_asc_node": 13.757,
        "meta_arg_of_pericenter": 308.486,
        "meta_mean_anomaly": 234.1547,
        "meta_ephemeris_type": 0,
        "meta_classification_type": "U",
        "meta_norad_cat_id": 39163,
        "meta_element_set_no": 999,
        "meta_rev_at_epoch": 4622,
        "meta_bstar": 0,
        "meta_mean_motion_dot": 7e-07,
        "meta_mean_motion_ddot": 0,
        "tle_line1": "1 39163U 13022A   25361.25947389  .00000070  00000+0  00000+0 0  9999",
        "tle_line2": "2 39163   0.0674  13.7570 0004788 308.4860 234.1547  1.00271950 46225"
      },
      "geometry": {
        "type": "Point",
        "coordinates": [
          23.05086810246695,
          0.016087557178959447
        ]
      }
    },
    {
      "type": "Feature",
      "properties": {
        "norad_id": 39612,
        "name": "EXPRESS-AT1",
        "group": "eutelsat",
        "lat": 0.016616393801256214,
        "lon": 71.99629968613638,
        "alt_km": 35784.099483309765,
        "timestamp": "2025-12-27T18:38:03.150594+00:00",
        "meta_object_name": "EXPRESS-AT1",
        "meta_object_id": "2014-010A",
        "meta_epoch": "2025-12-27T11:33:21.127392",
        "meta_mean_motion": 1.0027232,
        "meta_eccentricity": 0.0001194,
        "meta_inclination": 0.02,
        "meta_ra_of_asc_node": 271.5244,
        "meta_arg_of_pericenter": 229.6651,
        "meta_mean_anomaly": 184.3605,
        "meta_ephemeris_type": 0,
        "meta_classification_type": "U",
        "meta_norad_cat_id": 39612,
        "meta_element_set_no": 999,
        "meta_rev_at_epoch": 4309,
        "meta_bstar": 0,
        "meta_mean_motion_dot": 1.01e-06,
        "meta_mean_motion_ddot": 0,
        "tle_line1": "1 39612U 14010A   25361.48149453  .00000101  00000+0  00000+0 0  9992",
        "tle_line2": "2 39612   0.0200 271.5244 0001194 229.6651 184.3605  1.00272320 43096"
      },
      "geometry": {
        "type": "Point",
        "coordinates": [
          71.99629968613638,
          0.016616393801256214
        ]
      }
    },
    {
      "type": "Feature",
      "properties": {
        "norad_id": 39613,
        "name": "EXPRESS-AT2",
        "group": "eutelsat",
        "lat": 0.0040620527177121024,
        "lon": 155.84888044450898,
        "alt_km": 35790.21083242644,
        "timestamp": "2025-12-27T18:38:03.150606+00:00",
        "meta_object_name": "EXPRESS-AT2",
        "meta_object_id": "2014-010B",
        "meta_epoch": "2025-12-27T13:02:38.745600",
        "meta_mean_motion": 1.00270641,
        "meta_eccentricity": 0.0001718,
        "meta_inclination": 0.0181,
        "meta_ra_of_asc_node": 330.0863,
        "meta_arg_of_pericenter": 307.1108,
        "meta_mean_anomaly": 154.5958,
        "meta_ephemeris_type": 0,
        "meta_classification_type": "U",
        "meta_norad_cat_id": 39613,
        "meta_element_set_no": 999,
        "meta_rev_at_epoch": 4277,
        "meta_bstar": 0,
        "meta_mean_motion_dot": -2.59e-06,
        "meta_mean_motion_ddot": 0,
        "tle_line1": "1 39613U 14010B   25361.54350400 -.00000259  00000+0  00000+0 0  9991",
        "tle_line2": "2 39613   0.0181 330.0863 0001718 307.1108 154.5958  1.00270641 42772"
      },
      "geometry": {
        "type": "Point",
        "coordinates": [
          155.84888044450898,
          0.0040620527177121024
        ]
      }
    }
  ]
}